[
    {
        "Altitude(m)": 617719.7956090112,
        "Argument of Periapsis(deg)": 0.0,
        "Eccentricity": 0.0,
        "Inclination(deg)": 60.0,
        "Latitude(deg)": -41.10270688107768,
        "Longitude(deg)": -89.90537820222553,
        "Mean Anomaly(deg)": -130.90909999999997,
        "RAAN(deg)": 160.0,
        "Satellite Name": "Test1 718",
        "Satellite Number": 718,
        "Semi-Major Axis(m)": 6980739.136638005,
        "Time(s)": 0
    },
    {
        "Altitude(m)": 617911.3316600182,
        "Argument of Periapsis(deg)": 0.00010418945913296404,
        "Eccentricity": 0.0,
        "Inclination(deg)": 60.0,
        "Latitude(deg)": -41.565899103945846,
        "Longitude(deg)": -89.40097154970874,
        "Mean Anomaly(deg)": -130.28899385453818,
        "RAAN(deg)": 159.99957995086024,
        "Satellite Name": "Test1 718",
        "Satellite Number": 718,
        "Semi-Major Axis(m)": 6980739.136638005,
        "Time(s)": 10
    }
]